start=new Date('2022-06-24T00:00:00.000Z').valueOf();
sats=[{"MEAN_MOTION_DOT":"-0.00000702","RCS_SIZE":"LARGE","EPOCH":"2022-06-23T10:09:35.001792","MEAN_ELEMENT_THEORY":"SGP4","RA_OF_ASC_NODE":"195.6496","PERIOD":"95.593","INCLINATION":"53.0533","TLE_LINE2":"2 47837  53.0533 195.6496 0001549  48.2657 311.8465 15.06393336 72614","TLE_LINE1":"1 47837U 21018BC  22174.42332178 -.00000702  00000-0 -28254-4 0  9993","OBJECT_NAME":"STARLINK-2427","DECAY_DATE":null,"MEAN_MOTION":"15.06393336","SITE":"AFETR","ARG_OF_PERICENTER":"48.2657","GP_ID":"206684183","OBJECT_ID":"2021-018BC","EPHEMERIS_TYPE":"0","CENTER_NAME":"EARTH","ELEMENT_SET_NO":"999","LAUNCH_DATE":"2021-03-11","TIME_SYSTEM":"UTC","SEMIMAJOR_AXIS":"6925.369","REF_FRAME":"TEME","NORAD_CAT_ID":"47837","ECCENTRICITY":"0.00015490","REV_AT_EPOCH":"7261","BSTAR":"-0.00002825400000","FILE":"3500539","COUNTRY_CODE":"US","CLASSIFICATION_TYPE":"U","APOAPSIS":"548.307","PERIAPSIS":"546.161","MEAN_MOTION_DDOT":"0.0000000000000","OBJECT_TYPE":"PAYLOAD","MEAN_ANOMALY":"311.8465"},{"REF_FRAME":"TEME","SEMIMAJOR_AXIS":"6925.341","NORAD_CAT_ID":"47838","ECCENTRICITY":"0.00018370","TIME_SYSTEM":"UTC","COUNTRY_CODE":"US","CLASSIFICATION_TYPE":"U","REV_AT_EPOCH":"7232","BSTAR":"0.00002708200000","FILE":"3500539","OBJECT_TYPE":"PAYLOAD","MEAN_ANOMALY":"313.5561","APOAPSIS":"548.478","PERIAPSIS":"545.933","MEAN_MOTION_DDOT":"0.0000000000000","MEAN_MOTION_DOT":"0.00000122","RA_OF_ASC_NODE":"215.5941","PERIOD":"95.592","INCLINATION":"53.0544","EPOCH":"2022-06-23T10:28:09.047712","RCS_SIZE":"LARGE","MEAN_ELEMENT_THEORY":"SGP4","TLE_LINE1":"1 47838U 21018BD  22174.43621583  .00000122  00000-0  27082-4 0  9998","OBJECT_NAME":"STARLINK-2429","DECAY_DATE":null,"TLE_LINE2":"2 47838  53.0544 215.5941 0001837  46.5580 313.5561 15.06402629 72320","EPHEMERIS_TYPE":"0","CENTER_NAME":"EARTH","ELEMENT_SET_NO":"999","LAUNCH_DATE":"2021-03-11","SITE":"AFETR","MEAN_MOTION":"15.06402629","GP_ID":"206685433","OBJECT_ID":"2021-018BD","ARG_OF_PERICENTER":"46.5580"},{"SITE":"AFETR","MEAN_MOTION":"15.06395587","GP_ID":"206692533","ARG_OF_PERICENTER":"58.3440","OBJECT_ID":"2021-018BE","ELEMENT_SET_NO":"999","EPHEMERIS_TYPE":"0","CENTER_NAME":"EARTH","LAUNCH_DATE":"2021-03-11","TLE_LINE2":"2 47839  53.0537 184.2550 0001626  58.3440 301.7708 15.06395587 72464","OBJECT_NAME":"STARLINK-2431","TLE_LINE1":"1 47839U 21018BE  22174.73017108 -.00000670  00000-0 -26103-4 0  9997","DECAY_DATE":null,"RCS_SIZE":"LARGE","EPOCH":"2022-06-23T17:31:26.781312","MEAN_ELEMENT_THEORY":"SGP4","RA_OF_ASC_NODE":"184.2550","INCLINATION":"53.0537","PERIOD":"95.592","MEAN_MOTION_DOT":"-0.00000670","PERIAPSIS":"546.101","MEAN_MOTION_DDOT":"0.0000000000000","APOAPSIS":"548.353","OBJECT_TYPE":"PAYLOAD","MEAN_ANOMALY":"301.7708","BSTAR":"-0.00002610300000","REV_AT_EPOCH":"7246","FILE":"3500719","COUNTRY_CODE":"US","CLASSIFICATION_TYPE":"U","TIME_SYSTEM":"UTC","SEMIMAJOR_AXIS":"6925.362","REF_FRAME":"TEME","NORAD_CAT_ID":"47839","ECCENTRICITY":"0.00016260"},{"OBJECT_TYPE":"PAYLOAD","MEAN_ANOMALY":"304.6443","APOAPSIS":"548.417","PERIAPSIS":"546.022","MEAN_MOTION_DDOT":"0.0000000000000","COUNTRY_CODE":"US","CLASSIFICATION_TYPE":"U","REV_AT_EPOCH":"7261","BSTAR":"-0.00000501770000","FILE":"3500539","REF_FRAME":"TEME","SEMIMAJOR_AXIS":"6925.354","NORAD_CAT_ID":"47840","ECCENTRICITY":"0.00017290","TIME_SYSTEM":"UTC","EPHEMERIS_TYPE":"0","CENTER_NAME":"EARTH","ELEMENT_SET_NO":"999","LAUNCH_DATE":"2021-03-11","MEAN_MOTION":"15.06398090","SITE":"AFETR","GP_ID":"206684433","OBJECT_ID":"2021-018BF","ARG_OF_PERICENTER":"55.4709","TLE_LINE1":"1 47840U 21018BF  22174.47491415 -.00000356  00000-0 -50177-5 0  9997","OBJECT_NAME":"STARLINK-2432","DECAY_DATE":null,"TLE_LINE2":"2 47840  53.0548 195.4250 0001729  55.4709 304.6443 15.06398090 72616","RA_OF_ASC_NODE":"195.4250","PERIOD":"95.592","INCLINATION":"53.0548","EPOCH":"2022-06-23T11:23:52.582560","RCS_SIZE":"LARGE","MEAN_ELEMENT_THEORY":"SGP4","MEAN_MOTION_DOT":"-0.00000356"},{"SEMIMAJOR_AXIS":"6925.362","REF_FRAME":"TEME","NORAD_CAT_ID":"47841","ECCENTRICITY":"0.00015230","TIME_SYSTEM":"UTC","COUNTRY_CODE":"US","CLASSIFICATION_TYPE":"U","BSTAR":"-0.00000584870000","REV_AT_EPOCH":"7261","FILE":"3500539","MEAN_ANOMALY":"285.8544","OBJECT_TYPE":"PAYLOAD","PERIAPSIS":"546.173","MEAN_MOTION_DDOT":"0.0000000000000","APOAPSIS":"548.282","MEAN_MOTION_DOT":"-0.00000369","RA_OF_ASC_NODE":"195.4384","INCLINATION":"53.0552","PERIOD":"95.592","EPOCH":"2022-06-23T11:18:34.500096","RCS_SIZE":"LARGE","MEAN_ELEMENT_THEORY":"SGP4","OBJECT_NAME":"STARLINK-2433","TLE_LINE1":"1 47841U 21018BG  22174.47123264 -.00000369  00000-0 -58487-5 0  9998","DECAY_DATE":null,"TLE_LINE2":"2 47841  53.0552 195.4384 0001523  74.2613 285.8544 15.06395521 72613","ELEMENT_SET_NO":"999","EPHEMERIS_TYPE":"0","CENTER_NAME":"EARTH","LAUNCH_DATE":"2021-03-11","MEAN_MOTION":"15.06395521","SITE":"AFETR","GP_ID":"206684682","ARG_OF_PERICENTER":"74.2613","OBJECT_ID":"2021-018BG"},{"MEAN_MOTION_DOT":"-0.00000764","RA_OF_ASC_NODE":"223.7093","PERIOD":"95.593","INCLINATION":"53.0542","EPOCH":"2022-06-23T20:31:55.073856","RCS_SIZE":"LARGE","MEAN_ELEMENT_THEORY":"SGP4","TLE_LINE1":"1 47842U 21018BH  22174.85549854 -.00000764  00000-0 -32415-4 0  9999","OBJECT_NAME":"STARLINK-2434","DECAY_DATE":null,"TLE_LINE2":"2 47842  53.0542 223.7093 0001679  53.8041 306.3103 15.06393725 71911","EPHEMERIS_TYPE":"0","CENTER_NAME":"EARTH","ELEMENT_SET_NO":"999","LAUNCH_DATE":"2021-03-11","SITE":"AFETR","MEAN_MOTION":"15.06393725","OBJECT_ID":"2021-018BH","GP_ID":"206690684","ARG_OF_PERICENTER":"53.8041","REF_FRAME":"TEME","SEMIMAJOR_AXIS":"6925.368","ECCENTRICITY":"0.00016790","NORAD_CAT_ID":"47842","TIME_SYSTEM":"UTC","COUNTRY_CODE":"US","CLASSIFICATION_TYPE":"U","REV_AT_EPOCH":"7191","BSTAR":"-0.00003241500000","FILE":"3500668","OBJECT_TYPE":"PAYLOAD","MEAN_ANOMALY":"306.3103","APOAPSIS":"548.396","MEAN_MOTION_DDOT":"0.0000000000000","PERIAPSIS":"546.070"},{"ECCENTRICITY":"0.00017520","NORAD_CAT_ID":"47843","SEMIMAJOR_AXIS":"6925.422","REF_FRAME":"TEME","TIME_SYSTEM":"UTC","CLASSIFICATION_TYPE":"U","COUNTRY_CODE":"US","FILE":"3500539","REV_AT_EPOCH":"7227","BSTAR":"0.00017551000000","MEAN_ANOMALY":"307.1931","OBJECT_TYPE":"PAYLOAD","APOAPSIS":"548.500","MEAN_MOTION_DDOT":"0.0000000000000","PERIAPSIS":"546.074","MEAN_MOTION_DOT":"0.00002332","PERIOD":"95.594","INCLINATION":"53.0538","RA_OF_ASC_NODE":"220.6265","MEAN_ELEMENT_THEORY":"SGP4","EPOCH":"2022-06-23T10:19:32.342880","RCS_SIZE":"LARGE","DECAY_DATE":null,"TLE_LINE1":"1 47843U 21018BJ  22174.43023545  .00002332  00000-0  17551-3 0  9992","OBJECT_NAME":"STARLINK-2435","TLE_LINE2":"2 47843  53.0538 220.6265 0001752  52.9217 307.1931 15.06376025 72273","LAUNCH_DATE":"2021-03-11","EPHEMERIS_TYPE":"0","CENTER_NAME":"EARTH","ELEMENT_SET_NO":"999","GP_ID":"206685684","OBJECT_ID":"2021-018BJ","ARG_OF_PERICENTER":"52.9217","SITE":"AFETR","MEAN_MOTION":"15.06376025"},{"FILE":"3500676","REV_AT_EPOCH":"7205","BSTAR":"0.00003589000000","CLASSIFICATION_TYPE":"U","COUNTRY_CODE":"US","APOAPSIS":"548.304","MEAN_MOTION_DDOT":"0.0000000000000","PERIAPSIS":"546.127","MEAN_ANOMALY":"299.2055","OBJECT_TYPE":"PAYLOAD","TIME_SYSTEM":"UTC","NORAD_CAT_ID":"47844","ECCENTRICITY":"0.00015720","REF_FRAME":"TEME","SEMIMAJOR_AXIS":"6925.351","TLE_LINE2":"2 47844  53.0535 213.8460 0001572  60.9091 299.2055 15.06399362 72054","DECAY_DATE":null,"TLE_LINE1":"1 47844U 21018BK  22174.82691923  .00000253  00000-0  35890-4 0  9994","OBJECT_NAME":"STARLINK-2446","ARG_OF_PERICENTER":"60.9091","GP_ID":"206690697","OBJECT_ID":"2021-018BK","SITE":"AFETR","MEAN_MOTION":"15.06399362","LAUNCH_DATE":"2021-03-11","EPHEMERIS_TYPE":"0","CENTER_NAME":"EARTH","ELEMENT_SET_NO":"999","MEAN_MOTION_DOT":"0.00000253","MEAN_ELEMENT_THEORY":"SGP4","EPOCH":"2022-06-23T19:50:45.821472","RCS_SIZE":"LARGE","PERIOD":"95.592","INCLINATION":"53.0535","RA_OF_ASC_NODE":"213.8460"},{"OBJECT_TYPE":"PAYLOAD","MEAN_ANOMALY":"310.0836","PERIAPSIS":"546.115","MEAN_MOTION_DDOT":"0.0000000000000","APOAPSIS":"548.320","COUNTRY_CODE":"US","CLASSIFICATION_TYPE":"U","BSTAR":"0.00009304000000","REV_AT_EPOCH":"7232","FILE":"3500539","REF_FRAME":"TEME","SEMIMAJOR_AXIS":"6925.353","NORAD_CAT_ID":"47845","ECCENTRICITY":"0.00015920","TIME_SYSTEM":"UTC","ELEMENT_SET_NO":"999","EPHEMERIS_TYPE":"0","CENTER_NAME":"EARTH","LAUNCH_DATE":"2021-03-11","MEAN_MOTION":"15.06398577","SITE":"AFETR","ARG_OF_PERICENTER":"50.0292","GP_ID":"206684184","OBJECT_ID":"2021-018BL","OBJECT_NAME":"STARLINK-2453","TLE_LINE1":"1 47845U 21018BL  22174.38092476  .00001105  00000-0  93040-4 0  9992","DECAY_DATE":null,"TLE_LINE2":"2 47845  53.0528 215.8458 0001592  50.0292 310.0836 15.06398577 72327","RA_OF_ASC_NODE":"215.8458","INCLINATION":"53.0528","PERIOD":"95.592","EPOCH":"2022-06-23T09:08:31.899264","RCS_SIZE":"LARGE","MEAN_ELEMENT_THEORY":"SGP4","MEAN_MOTION_DOT":"0.00001105"},{"RA_OF_ASC_NODE":"215.8506","PERIOD":"95.592","INCLINATION":"53.0548","EPOCH":"2022-06-23T09:01:51.151872","RCS_SIZE":"LARGE","MEAN_ELEMENT_THEORY":"SGP4","MEAN_MOTION_DOT":"-0.00001330","EPHEMERIS_TYPE":"0","CENTER_NAME":"EARTH","ELEMENT_SET_NO":"999","LAUNCH_DATE":"2021-03-11","MEAN_MOTION":"15.06409096","SITE":"AFETR","GP_ID":"206685434","ARG_OF_PERICENTER":"64.0885","OBJECT_ID":"2021-018BM","TLE_LINE1":"1 47846U 21018BM  22174.37628648 -.00001330  00000-0 -70411-4 0  9997","OBJECT_NAME":"STARLINK-2456","DECAY_DATE":null,"TLE_LINE2":"2 47846  53.0548 215.8506 0001543  64.0885 296.0263 15.06409096 72374","REF_FRAME":"TEME","SEMIMAJOR_AXIS":"6925.321","NORAD_CAT_ID":"47846","ECCENTRICITY":"0.00015430","TIME_SYSTEM":"UTC","OBJECT_TYPE":"PAYLOAD","MEAN_ANOMALY":"296.0263","APOAPSIS":"548.254","MEAN_MOTION_DDOT":"0.0000000000000","PERIAPSIS":"546.117","COUNTRY_CODE":"US","CLASSIFICATION_TYPE":"U","REV_AT_EPOCH":"7237","BSTAR":"-0.00007041100000","FILE":"3500539"}];
